BEIJING 1               
1 28890U 05043A   23014.34056865  .00000659  00000+0  14195-3 0  9998
2 28890  98.1393 138.1844 0014085 230.5175 129.4787 14.61588201917946
HJ-1A                   
1 33320U 08041A   23014.31578546  .00000882  00000+0  12845-3 0  9993
2 33320  97.6578  42.2696 0019468 266.2241  93.6758 14.78061916773531
HJ-1B                   
1 33321U 08041B   23014.60252099  .00001924  00000+0  27016-3 0  9992
2 33321  97.6727  46.5317 0032577 284.5979  75.1653 14.78179829773578
YAOGAN 4                
1 33446U 08061A   23014.53779008  .00001325  00000+0  19172-3 0  9997
2 33446  97.8390 313.4899 0016378 165.8342 194.3331 14.77680232760769
DEIMOS-1                
1 35681U 09041A   23014.30722105  .00000745  00000+0  12532-3 0  9998
2 35681  97.6907 219.3216 0000096 358.7170   1.4030 14.72239472722799
UK-DMC 2                
1 35683U 09041C   23014.41931576  .00001112  00000+0  18579-3 0  9992
2 35683  97.7106 181.3227 0001261  68.7772 291.3594 14.71689975722537
RISAT 1                 
1 38248U 12017A   23014.48894760  .00008352  00000+0  46891-3 0  9990
2 38248  97.5491  28.6774 0002222 237.4898 122.6119 15.13582039590749
DMC3-FM1                
1 40715U 15032A   23014.49495354  .00000994  00000+0  13069-3 0  9994
2 40715  97.8207 261.8454 0005630 176.9568 183.1676 14.82365831404559
DMC3-FM2                
1 40716U 15032B   23014.45062062  .00000988  00000+0  12988-3 0  9999
2 40716  97.8252 262.5544 0007282 184.1738 175.9423 14.82379590404559
DMC3-FM3                
1 40717U 15032C   23014.47145995  .00000986  00000+0  12965-3 0  9992
2 40717  97.8290 263.5810 0009021 183.1487 176.9682 14.82356049404554
